OBJECT_NAME,OBJECT_ID,EPOCH,MEAN_MOTION,ECCENTRICITY,INCLINATION,RA_OF_ASC_NODE,ARG_OF_PERICENTER,MEAN_ANOMALY,EPHEMERIS_TYPE,CLASSIFICATION_TYPE,NORAD_CAT_ID,ELEMENT_SET_NO,REV_AT_EPOCH,BSTAR,MEAN_MOTION_DOT,MEAN_MOTION_DDOT
STARLINK-31537,2024-060T,2026-06-14T00:44:59.671680,15.27570491,.00012713,43.0021,76.0579,272.5037,87.5669,0,U,59365,999,12479,-.24690282E-4,-.941E-5,0
STARLINK-31451,2024-060U,2026-06-14T10:35:37.957056,15.27571143,.0000572,43.0072,73.1223,287.6827,72.3962,0,U,59366,999,12486,-.53045E-4,-.1721E-4,0
STARLINK-31428,2024-060V,2026-06-14T10:52:16.544064,15.27571718,.0001238,43.0046,73.2076,282.9343,77.1370,0,U,59367,999,12486,-.16162E-4,-.707E-5,0
STARLINK-31419,2024-060W,2026-06-14T11:01:31.302048,15.27578316,.0001494,43.0020,73.2531,276.3603,83.7078,0,U,59368,999,12486,.16169E-4,.183E-5,0
STARLINK-31583,2024-060X,2026-06-14T10:06:15.669216,15.27574713,.0000983,43.0079,62.5806,315.3986,44.6786,0,U,59369,999,12498,.44115E-6,-.25E-5,0
STARLINK-31461,2024-060Y,2026-06-12T11:18:12.703104,15.27578632,.00013431,43.0036,73.7440,269.8309,90.2389,0,U,59370,999,12462,.22097385E-4,.346E-5,0
STARLINK-31641,2024-062A,2026-06-14T05:58:28.404768,15.34386291,.0001162,53.1584,168.6904,110.1137,249.9990,0,U,59374,999,12442,-.64216E-6,-.398E-5,0
STARLINK-31430,2024-062B,2026-06-14T05:22:14.229120,15.34391231,.0001396,53.1610,169.2394,97.4366,262.6795,0,U,59375,999,12442,.12206E-4,.36E-6,0
STARLINK-31695,2024-062C,2026-06-14T06:49:09.829056,15.34401447,.0001248,53.1587,166.7718,92.1275,267.9870,0,U,59376,999,12442,.85862E-4,.2526E-4,0
STARLINK-31716,2024-062D,2026-06-14T03:23:57.957792,15.30186980,.00013533,53.1598,119.0045,86.6184,273.4972,0,U,59377,999,12507,-.29470148E-4,-.1232E-4,0
STARLINK-31710,2024-062E,2026-06-14T06:27:57.326400,15.34390374,.0001357,53.1610,166.6741,92.7931,267.3227,0,U,59378,999,12442,.36081E-4,.843E-5,0
STARLINK-31698,2024-062F,2026-06-14T07:43:34.332960,15.34378289,.0001253,53.1583,166.3078,82.6463,277.4682,0,U,59379,999,12443,-.13011E-3,-.4766E-4,0
STARLINK-31680,2024-062G,2026-06-14T07:41:21.537024,15.34386990,.0001226,53.1597,168.4149,90.5732,269.5411,0,U,59380,999,12440,-.43831E-4,-.1856E-4,0
STARLINK-31713,2024-062H,2026-06-14T07:29:13.992000,15.34384379,.0001048,53.1594,168.3663,77.5694,282.5426,0,U,59381,999,12440,.37564E-4,.893E-5,0
STARLINK-31705,2024-062J,2026-06-14T06:37:02.665920,15.34388403,.0001022,53.1607,166.7147,80.5971,279.5148,0,U,59382,999,12442,.35294E-5,-.257E-5,0
STARLINK-31715,2024-062L,2026-06-13T16:59:32.601408,15.30354243,.00020111,53.1596,169.5715,132.2760,227.8411,0,U,59384,999,12437,.67310276E-3,.19724E-3,0
STARLINK-31717,2024-062M,2026-06-14T06:24:55.654848,15.34381392,.0001408,53.1607,166.6619,93.0242,267.0921,0,U,59385,999,12445,.69888E-4,.1984E-4,0
STARLINK-31688,2024-062N,2026-06-14T07:38:19.545792,15.34378071,.0001144,53.1600,168.4046,95.1840,264.9293,0,U,59386,999,12440,.39676E-4,.964E-5,0
STARLINK-31714,2024-062P,2026-06-14T07:49:38.081280,15.34386063,.0001193,53.1598,166.3184,84.9585,275.1554,0,U,59387,999,12442,.1303E-4,.64E-6,0
STARLINK-31643,2024-062Q,2026-06-14T07:52:40.063872,15.34378223,.0001265,53.1602,166.3321,86.0472,274.0675,0,U,59388,999,12447,.22168E-3,.7116E-4,0
STARLINK-31647,2024-062R,2026-06-14T05:51:44.591904,15.34381387,.0000963,53.1610,167.2642,73.3851,286.7257,0,U,59389,999,12445,.57939E-4,.1581E-4,0
STARLINK-31649,2024-062S,2026-06-14T06:40:04.384128,15.34390217,.0001003,53.1609,166.7294,77.1003,283.0112,0,U,59390,999,12446,-.55473E-5,-.563E-5,0
STARLINK-31644,2024-062T,2026-06-14T06:53:00.409920,15.34402152,.0001227,53.1599,168.9177,79.7509,280.3632,0,U,59391,999,12443,-.8734E-4,-.3326E-4,0
STARLINK-31626,2024-062U,2026-06-14T07:01:40.927584,15.30194547,.0001187,53.1599,166.8180,85.3612,274.7524,0,U,59392,999,12446,.15282E-4,.93E-6,0
STARLINK-31443,2024-062V,2026-06-14T06:24:05.580000,15.34387597,.0001321,53.1601,152.9881,95.1575,264.9578,0,U,59393,999,12465,.73648E-6,-.351E-5,0
STARLINK-31607,2024-062W,2026-06-14T06:57:53.921088,15.33531948,.0001402,53.1604,166.8015,88.0324,272.0839,0,U,59394,999,12445,.10212E-4,-.37E-6,0
STARLINK-31608,2024-062X,2026-06-14T06:00:49.159872,15.34384317,.0001521,53.1610,167.2656,90.5104,269.6073,0,U,59397,999,12440,.94465E-6,-.344E-5,0
STARLINK-31534,2024-064A,2026-06-14T11:38:00.456000,15.27604500,.0003017,42.9931,229.1581,270.3841,89.6664,0,U,59398,999,12397,-.27586E-3,-.7852E-4,0
STARLINK-31544,2024-064B,2026-06-14T11:17:51.308736,15.27576149,.000122,43.0131,229.9111,287.0254,73.0465,0,U,59399,999,12402,-.16779E-4,-.724E-5,0
STARLINK-31545,2024-064C,2026-06-13T21:47:13.481088,15.27582275,.0003091,43.0093,232.5673,274.1443,85.9056,0,U,59400,999,12394,.38012E-4,.783E-5,0
