STARLINK-31537          
1 59365U 24060T   26165.03124620 -.00000941  00000+0 -24690-4 0  9998
2 59365  43.0021  76.0579 0001271 272.5037  87.5669 15.27570491124796
STARLINK-31451          
1 59366U 24060U   26165.44141154 -.00001721  00000+0 -53045-4 0  9998
2 59366  43.0072  73.1223 0000572 287.6827  72.3962 15.27571143124865
STARLINK-31428          
1 59367U 24060V   26165.45296926 -.00000707  00000+0 -16162-4 0  9990
2 59367  43.0046  73.2076 0001238 282.9343  77.1370 15.27571718124869
STARLINK-31419          
1 59368U 24060W   26165.45939007  .00000183  00000+0  16169-4 0  9998
2 59368  43.0020  73.2531 0001494 276.3603  83.7078 15.27578316124867
STARLINK-31583          
1 59369U 24060X   26165.42101469 -.00000250  00000+0  44115-6 0  9999
2 59369  43.0079  62.5806 0000983 315.3986  44.6786 15.27574713124980
STARLINK-31461          
1 59370U 24060Y   26163.47098036  .00000346  00000+0  22097-4 0  9997
2 59370  43.0036  73.7440 0001343 269.8309  90.2389 15.27578632124627
STARLINK-31641          
1 59374U 24062A   26165.24893987 -.00000398  00000+0 -64216-6 0  9998
2 59374  53.1584 168.6904 0001162 110.1137 249.9990 15.34386291124421
STARLINK-31430          
1 59375U 24062B   26165.22377580  .00000036  00000+0  12206-4 0  9990
2 59375  53.1610 169.2394 0001396  97.4366 262.6795 15.34391231124427
STARLINK-31695          
1 59376U 24062C   26165.28414154  .00002526  00000+0  85862-4 0  9990
2 59376  53.1587 166.7718 0001248  92.1275 267.9870 15.34401447124423
STARLINK-31716          
1 59377U 24062D   26165.14164303 -.00001232  00000+0 -29470-4 0  9992
2 59377  53.1598 119.0045 0001353  86.6184 273.4972 15.30186980125079
STARLINK-31710          
1 59378U 24062E   26165.26941350  .00000843  00000+0  36081-4 0  9992
2 59378  53.1610 166.6741 0001357  92.7931 267.3227 15.34390374124429
STARLINK-31698          
1 59379U 24062F   26165.32192515 -.00004766  00000+0 -13011-3 0  9998
2 59379  53.1583 166.3078 0001253  82.6463 277.4682 15.34378289124431
STARLINK-31680          
1 59380U 24062G   26165.32038816 -.00001856  00000+0 -43831-4 0  9994
2 59380  53.1597 168.4149 0001226  90.5732 269.5411 15.34386990124404
STARLINK-31713          
1 59381U 24062H   26165.31196750  .00000893  00000+0  37564-4 0  9990
2 59381  53.1594 168.3663 0001048  77.5694 282.5426 15.34384379124406
STARLINK-31705          
1 59382U 24062J   26165.27572530 -.00000257  00000+0  35294-5 0  9994
2 59382  53.1607 166.7147 0001022  80.5971 279.5148 15.34388403124426
STARLINK-31715          
1 59384U 24062L   26164.70801622  .00019724  00000+0  67310-3 0  9990
2 59384  53.1596 169.5715 0002011 132.2760 227.8411 15.30354243124371
STARLINK-31717          
1 59385U 24062M   26165.26731082  .00001984  00000+0  69888-4 0  9997
2 59385  53.1607 166.6619 0001408  93.0242 267.0921 15.34381392124454
STARLINK-31688          
1 59386U 24062N   26165.31828178  .00000964  00000+0  39676-4 0  9996
2 59386  53.1600 168.4046 0001144  95.1840 264.9293 15.34378071124409
STARLINK-31714          
1 59387U 24062P   26165.32613520  .00000064  00000+0  13030-4 0  9998
2 59387  53.1598 166.3184 0001193  84.9585 275.1554 15.34386063124428
STARLINK-31643          
1 59388U 24062Q   26165.32824148  .00007116  00000+0  22168-3 0  9995
2 59388  53.1602 166.3321 0001265  86.0472 274.0675 15.34378223124472
STARLINK-31647          
1 59389U 24062R   26165.24426611  .00001581  00000+0  57939-4 0  9995
2 59389  53.1610 167.2642 0000963  73.3851 286.7257 15.34381387124451
STARLINK-31649          
1 59390U 24062S   26165.27782852 -.00000563  00000+0 -55473-5 0  9995
2 59390  53.1609 166.7294 0001003  77.1003 283.0112 15.34390217124468
STARLINK-31644          
1 59391U 24062T   26165.28681030 -.00003326  00000+0 -87340-4 0  9990
2 59391  53.1599 168.9177 0001227  79.7509 280.3632 15.34402152124434
STARLINK-31626          
1 59392U 24062U   26165.29283481  .00000093  00000+0  15282-4 0  9992
2 59392  53.1599 166.8180 0001187  85.3612 274.7524 15.30194547124461
STARLINK-31443          
1 59393U 24062V   26165.26673125 -.00000351  00000+0  73648-6 0  9998
2 59393  53.1601 152.9881 0001321  95.1575 264.9578 15.34387597124651
STARLINK-31607          
1 59394U 24062W   26165.29020742 -.00000037  00000+0  10212-4 0  9990
2 59394  53.1604 166.8015 0001402  88.0324 272.0839 15.33531948124459
STARLINK-31608          
1 59397U 24062X   26165.25056898 -.00000344  00000+0  94465-6 0  9995
2 59397  53.1610 167.2656 0001521  90.5104 269.6073 15.34384317124405
STARLINK-31534          
1 59398U 24064A   26165.48472750 -.00007852  00000+0 -27586-3 0  9991
2 59398  42.9931 229.1581 0003017 270.3841  89.6664 15.27604500123979
STARLINK-31544          
1 59399U 24064B   26165.47073274 -.00000724  00000+0 -16779-4 0  9993
2 59399  43.0131 229.9111 0001220 287.0254  73.0465 15.27576149124028
STARLINK-31545          
1 59400U 24064C   26164.90779492  .00000783  00000+0  38012-4 0  9995
2 59400  43.0093 232.5673 0003091 274.1443  85.9056 15.27582275123941
